{
  "norad_id": 59502,
  "name": "STARLINK-31357",
  "history": [
    {
      "epoch": "2026-04-13T03:53:03.037344Z",
      "apogee_km": 483.92638635689946,
      "perigee_km": 482.20161764901604,
      "latitude_deg": 2.3494705430392068e-05,
      "longitude_deg": -114.20661720424539,
      "height_km": 482.86609979949344,
      "semi_major_axis_km": 6861.2010020029575,
      "eccentricity": 0.00012569,
      "inclination_deg": 43.0017,
      "raan_deg": 145.4126,
      "arg_perigee_deg": 268.3167,
      "mean_anomaly_deg": 91.7541,
      "mean_motion_rev_day": 15.27575022
    },
    {
      "epoch": "2026-04-14T19:06:57.872160Z",
      "apogee_km": 483.9557437859348,
      "perigee_km": 482.16634333617367,
      "latitude_deg": -2.7718108272074094e-05,
      "longitude_deg": 6.4720546570512605,
      "height_km": 482.79029873917756,
      "semi_major_axis_km": 6861.198043561054,
      "eccentricity": 0.0001304,
      "inclination_deg": 43.0022,
      "raan_deg": 136.181,
      "arg_perigee_deg": 273.051,
      "mean_anomaly_deg": 87.0192,
      "mean_motion_rev_day": 15.2757601
    },
    {
      "epoch": "2026-04-15T12:22:40.806048Z",
      "apogee_km": 483.93290033981884,
      "perigee_km": 482.16683084061515,
      "latitude_deg": 1.4754985602407498e-05,
      "longitude_deg": 102.77218797461197,
      "height_km": 482.7438926784416,
      "semi_major_axis_km": 6861.186865590216,
      "eccentricity": 0.0001287,
      "inclination_deg": 43.0022,
      "raan_deg": 132.1189,
      "arg_perigee_deg": 275.3824,
      "mean_anomaly_deg": 84.6881,
      "mean_motion_rev_day": 15.27579743
    },
    {
      "epoch": "2026-04-16T18:11:39.349248Z",
      "apogee_km": 483.85179096105094,
      "perigee_km": 482.26273836935343,
      "latitude_deg": -3.460654715619496e-05,
      "longitude_deg": 7.2881973702035365,
      "height_km": 482.7107105229507,
      "semi_major_axis_km": 6861.194264665201,
      "eccentricity": 0.0001158,
      "inclination_deg": 43.0016,
      "raan_deg": 125.1034,
      "arg_perigee_deg": 278.9232,
      "mean_anomaly_deg": 81.1488,
      "mean_motion_rev_day": 15.27577272
    },
    {
      "epoch": "2026-04-17T17:44:00.079584Z",
      "apogee_km": 483.8285393623928,
      "perigee_km": 482.280791746477,
      "latitude_deg": 3.124081366628994e-05,
      "longitude_deg": 7.695276353200778,
      "height_km": 482.72656903920097,
      "semi_major_axis_km": 6861.191665554435,
      "eccentricity": 0.00011279,
      "inclination_deg": 43.0018,
      "raan_deg": 119.5635,
      "arg_perigee_deg": 277.7809,
      "mean_anomaly_deg": 82.2915,
      "mean_motion_rev_day": 15.2757814
    },
    {
      "epoch": "2026-04-18T10:59:42.836352Z",
      "apogee_km": 483.80109346043173,
      "perigee_km": 482.2736588208145,
      "latitude_deg": -7.878636864803005e-06,
      "longitude_deg": 103.99596164249354,
      "height_km": 482.71582955105134,
      "semi_major_axis_km": 6861.174376140622,
      "eccentricity": 0.00011131,
      "inclination_deg": 43.0019,
      "raan_deg": 115.5013,
      "arg_perigee_deg": 277.3894,
      "mean_anomaly_deg": 82.6831,
      "mean_motion_rev_day": 15.27583914
    },
    {
      "epoch": "2026-04-19T16:48:41.939424Z",
      "apogee_km": 483.5710177252813,
      "perigee_km": 482.580258620329,
      "latitude_deg": -1.5487624739070412e-05,
      "longitude_deg": 8.507773087210762,
      "height_km": 482.69330106753415,
      "semi_major_axis_km": 6861.212638172805,
      "eccentricity": 7.22e-05,
      "inclination_deg": 43.0025,
      "raan_deg": 108.4839,
      "arg_perigee_deg": 288.6865,
      "mean_anomaly_deg": 71.3908,
      "mean_motion_rev_day": 15.27571136
    },
    {
      "epoch": "2026-04-20T06:56:06.518112Z",
      "apogee_km": 483.618241011588,
      "perigee_km": 482.53005292367925,
      "latitude_deg": -4.758953411186393e-07,
      "longitude_deg": 152.75264558790641,
      "height_km": 482.807331317467,
      "semi_major_axis_km": 6861.211146967634,
      "eccentricity": 7.93e-05,
      "inclination_deg": 43.0006,
      "raan_deg": 105.1612,
      "arg_perigee_deg": 274.5393,
      "mean_anomaly_deg": 85.5368,
      "mean_motion_rev_day": 15.27571634
    },
    {
      "epoch": "2026-04-21T08:02:36.222144Z",
      "apogee_km": 483.75385797118815,
      "perigee_km": 482.3452563709998,
      "latitude_deg": -5.890328043221492e-06,
      "longitude_deg": 129.18941133108524,
      "height_km": 482.79480377438637,
      "semi_major_axis_km": 6861.186557171093,
      "eccentricity": 0.00010265,
      "inclination_deg": 43.0006,
      "raan_deg": 99.2529,
      "arg_perigee_deg": 272.5396,
      "mean_anomaly_deg": 87.5338,
      "mean_motion_rev_day": 15.27579846
    },
    {
      "epoch": "2026-04-22T15:25:44.262624Z",
      "apogee_km": 483.9237850352447,
      "perigee_km": 482.20574011389454,
      "latitude_deg": -9.28053854108699e-06,
      "longitude_deg": 9.729942984655231,
      "height_km": 482.73710107092785,
      "semi_major_axis_km": 6861.201762574569,
      "eccentricity": 0.0001252,
      "inclination_deg": 42.9984,
      "raan_deg": 91.8659,
      "arg_perigee_deg": 276.9584,
      "mean_anomaly_deg": 83.1125,
      "mean_motion_rev_day": 15.27574768
    },
    {
      "epoch": "2026-04-23T07:07:17.098752Z",
      "apogee_km": 483.7810343421743,
      "perigee_km": 482.25936689822174,
      "latitude_deg": 1.5625644591915045e-05,
      "longitude_deg": 130.00668474542493,
      "height_km": 482.65396331082786,
      "semi_major_axis_km": 6861.157200620198,
      "eccentricity": 0.00011089,
      "inclination_deg": 43.0009,
      "raan_deg": 88.1739,
      "arg_perigee_deg": 280.8174,
      "mean_anomaly_deg": 79.2553,
      "mean_motion_rev_day": 15.2758965
    }
  ]
}